COSMOS 2251 DEB         
1 34277U 93036LX  17345.90912758  .00004098  00000-0  41051-3 0  9990
2 34277  73.6931 184.4096 0031182 323.0879  36.8154 14.91411534471274
